<?xml version="1.0" encoding="UTF-8"?>
<gpx xmlns="http://www.topografix.com/GPX/1/1" xmlns:xsi="http://www.w3.org/2001/XMLSchema-instance" xsi:schemaLocation="http://www.topografix.com/GPX/1/1 http://www.topografix.com/GPX/1/1/gpx.xsd" version="1.1" creator="Bergbot — https://github.com/suchipizza/BergBot">
  <metadata>
    <name>Schabziger Höhenweg (Filzbach, Habergschwänd - Mollis, Oberruestel)</name>
  </metadata>
  <wpt lat="47.10406900989804" lon="9.12489300903395">
    <name>Habergschwänd</name>
  </wpt>
  <wpt lat="47.071081" lon="9.091183">
    <name>Mollis, Vorderdorf</name>
  </wpt>
  <trk>
    <name>Schabziger Höhenweg (Filzbach, Habergschwänd - Mollis, Oberruestel)</name>
    <trkseg>
      <trkpt lat="47.10406901979612" lon="9.124893018067905">
      </trkpt>
      <trkpt lat="47.103848160158094" lon="9.124831081133566">
      </trkpt>
      <trkpt lat="47.10362461381388" lon="9.124796445712722">
      </trkpt>
      <trkpt lat="47.10343090214495" lon="9.124629182365014">
      </trkpt>
      <trkpt lat="47.103238569318044" lon="9.124458988049058">
      </trkpt>
      <trkpt lat="47.10308840377913" lon="9.12421398281573">
      </trkpt>
      <trkpt lat="47.102971749823226" lon="9.123932719745307">
      </trkpt>
      <trkpt lat="47.10291205101911" lon="9.123618107581581">
      </trkpt>
      <trkpt lat="47.10301350413369" lon="9.123324713335787">
      </trkpt>
      <trkpt lat="47.10315437601955" lon="9.123068072974588">
      </trkpt>
      <trkpt lat="47.103281069639536" lon="9.122796221967832">
      </trkpt>
      <trkpt lat="47.10336628036174" lon="9.122503239560883">
      </trkpt>
      <trkpt lat="47.10326410721966" lon="9.122210625165659">
      </trkpt>
      <trkpt lat="47.10312807780231" lon="9.121948681579841">
      </trkpt>
      <trkpt lat="47.10302959398476" lon="9.12166057623004">
      </trkpt>
      <trkpt lat="47.103087678415406" lon="9.121365879433151">
      </trkpt>
      <trkpt lat="47.10328543648472" lon="9.121209116108885">
      </trkpt>
      <trkpt lat="47.1034599849749" lon="9.121015323672477">
      </trkpt>
      <trkpt lat="47.10355818805078" lon="9.120723188112933">
      </trkpt>
      <trkpt lat="47.10360893197547" lon="9.120402344464818">
      </trkpt>
      <trkpt lat="47.10366599905436" lon="9.120084047091774">
      </trkpt>
      <trkpt lat="47.10369186725579" lon="9.119767884048276">
      </trkpt>
      <trkpt lat="47.103620030837504" lon="9.119458739632707">
      </trkpt>
      <trkpt lat="47.10355723407074" lon="9.11915417065492">
      </trkpt>
      <trkpt lat="47.10364400576757" lon="9.1188798116047">
      </trkpt>
      <trkpt lat="47.103829793545714" lon="9.118698856285695">
      </trkpt>
      <trkpt lat="47.103821074167264" lon="9.118560991420704">
      </trkpt>
      <trkpt lat="47.10390563956529" lon="9.118294612973271">
      </trkpt>
      <trkpt lat="47.10406384677056" lon="9.118061982398082">
      </trkpt>
      <trkpt lat="47.10403660686062" lon="9.117872461087074">
      </trkpt>
      <trkpt lat="47.10419799324509" lon="9.11771319880208">
      </trkpt>
      <trkpt lat="47.10427346274824" lon="9.117406144898895">
      </trkpt>
      <trkpt lat="47.10442903837011" lon="9.11717006962138">
      </trkpt>
      <trkpt lat="47.10455855454361" lon="9.116910890878877">
      </trkpt>
      <trkpt lat="47.10458899661063" lon="9.116595873493749">
      </trkpt>
      <trkpt lat="47.10463217790988" lon="9.116285735108553">
      </trkpt>
      <trkpt lat="47.10477737635394" lon="9.116046090453219">
      </trkpt>
      <trkpt lat="47.1048904922153" lon="9.115778356123327">
      </trkpt>
      <trkpt lat="47.10496239799871" lon="9.115466308548942">
      </trkpt>
      <trkpt lat="47.105006617638715" lon="9.11514442551726">
      </trkpt>
      <trkpt lat="47.104994068792784" lon="9.114817916659277">
      </trkpt>
      <trkpt lat="47.10492167940316" lon="9.114508470087998">
      </trkpt>
      <trkpt lat="47.104898634512935" lon="9.114185242497713">
      </trkpt>
      <trkpt lat="47.10481071439837" lon="9.113890056317416">
      </trkpt>
      <trkpt lat="47.104720228079735" lon="9.113589124005932">
      </trkpt>
      <trkpt lat="47.10469982379224" lon="9.1132644146404">
      </trkpt>
      <trkpt lat="47.1046919720575" lon="9.11293527444248">
      </trkpt>
      <trkpt lat="47.10462184646475" lon="9.112625371934378">
      </trkpt>
      <trkpt lat="47.10448408935254" lon="9.112368593493782">
      </trkpt>
      <trkpt lat="47.10434975234287" lon="9.112104779505984">
      </trkpt>
      <trkpt lat="47.10426204721503" lon="9.111803091190518">
      </trkpt>
      <trkpt lat="47.104141456335825" lon="9.111526589012305">
      </trkpt>
      <trkpt lat="47.10399175151882" lon="9.111281423913223">
      </trkpt>
      <trkpt lat="47.10378933814721" lon="9.111146065365022">
      </trkpt>
      <trkpt lat="47.103642410593984" lon="9.110903249438438">
      </trkpt>
      <trkpt lat="47.10348870222391" lon="9.110663090616221">
      </trkpt>
      <trkpt lat="47.10334193602355" lon="9.110413640546108">
      </trkpt>
      <trkpt lat="47.10320805549173" lon="9.1101491358333">
      </trkpt>
      <trkpt lat="47.10309669680958" lon="9.109863165914195">
      </trkpt>
      <trkpt lat="47.10300073790398" lon="9.10956537309814">
      </trkpt>
      <trkpt lat="47.10284951234798" lon="9.109322224962646">
      </trkpt>
      <trkpt lat="47.102702310861325" lon="9.109073262960933">
      </trkpt>
      <trkpt lat="47.10252494030333" lon="9.108884843198037">
      </trkpt>
      <trkpt lat="47.10231807576639" lon="9.10888610109922">
      </trkpt>
      <trkpt lat="47.102238948832344" lon="9.108602125500113">
      </trkpt>
      <trkpt lat="47.10226787961198" lon="9.10828661058206">
      </trkpt>
      <trkpt lat="47.10221408682293" lon="9.1079675755668">
      </trkpt>
      <trkpt lat="47.10218284394826" lon="9.107641441754927">
      </trkpt>
      <trkpt lat="47.102173703255424" lon="9.107315319909803">
      </trkpt>
      <trkpt lat="47.10217260662351" lon="9.106992020529175">
      </trkpt>
      <trkpt lat="47.10211353368752" lon="9.106674393919032">
      </trkpt>
      <trkpt lat="47.10198436181656" lon="9.106445031627729">
      </trkpt>
      <trkpt lat="47.10176734049401" lon="9.106393737814395">
      </trkpt>
      <trkpt lat="47.101586670432866" lon="9.106260230045473">
      </trkpt>
      <trkpt lat="47.10141299771992" lon="9.106057723721454">
      </trkpt>
      <trkpt lat="47.1012063712446" lon="9.105933002897885">
      </trkpt>
      <trkpt lat="47.10099032233809" lon="9.105841878001705">
      </trkpt>
      <trkpt lat="47.10078101819932" lon="9.105723971979524">
      </trkpt>
      <trkpt lat="47.10061557665272" lon="9.105511775914609">
      </trkpt>
      <trkpt lat="47.10046307486904" lon="9.105269941145675">
      </trkpt>
      <trkpt lat="47.100307689828064" lon="9.105031889318903">
      </trkpt>
      <trkpt lat="47.100203486771825" lon="9.104745463872948">
      </trkpt>
      <trkpt lat="47.10016843547348" lon="9.104422860257564">
      </trkpt>
      <trkpt lat="47.10016991479332" lon="9.104094003144661">
      </trkpt>
      <trkpt lat="47.1001753695562" lon="9.103764790049093">
      </trkpt>
      <trkpt lat="47.10005867645596" lon="9.103504875634204">
      </trkpt>
      <trkpt lat="47.09987867823689" lon="9.103309240091466">
      </trkpt>
      <trkpt lat="47.09971590928627" lon="9.103088738690273">
      </trkpt>
      <trkpt lat="47.09950400750344" lon="9.10299291603173">
      </trkpt>
      <trkpt lat="47.099279841628615" lon="9.102995407153529">
      </trkpt>
      <trkpt lat="47.09905877601011" lon="9.10293718547471">
      </trkpt>
      <trkpt lat="47.098843201898866" lon="9.102844046184545">
      </trkpt>
      <trkpt lat="47.098631789641175" lon="9.102731877224235">
      </trkpt>
      <trkpt lat="47.0984178231236" lon="9.102655233125962">
      </trkpt>
      <trkpt lat="47.09819376524868" lon="9.102683223285217">
      </trkpt>
      <trkpt lat="47.097976472085804" lon="9.102748427544919">
      </trkpt>
      <trkpt lat="47.097771672849724" lon="9.102884426987996">
      </trkpt>
      <trkpt lat="47.097565979684546" lon="9.103017457342068">
      </trkpt>
      <trkpt lat="47.0973521632642" lon="9.103103938506017">
      </trkpt>
      <trkpt lat="47.09712939953509" lon="9.103143314182065">
      </trkpt>
      <trkpt lat="47.09690811226912" lon="9.10320115065665">
      </trkpt>
      <trkpt lat="47.09668491882675" lon="9.10324019236519">
      </trkpt>
      <trkpt lat="47.09647246366843" lon="9.10332327516474">
      </trkpt>
      <trkpt lat="47.096268544744014" lon="9.10345768360229">
      </trkpt>
      <trkpt lat="47.096066156891254" lon="9.103433152213292">
      </trkpt>
      <trkpt lat="47.095872787464884" lon="9.103266232655432">
      </trkpt>
      <trkpt lat="47.095683779726315" lon="9.103089728135044">
      </trkpt>
      <trkpt lat="47.095515414598374" lon="9.102872764779256">
      </trkpt>
      <trkpt lat="47.09533410783266" lon="9.102683501807503">
      </trkpt>
      <trkpt lat="47.09515309113485" lon="9.102491175937319">
      </trkpt>
      <trkpt lat="47.09495775509648" lon="9.102338849983935">
      </trkpt>
      <trkpt lat="47.09474331831797" lon="9.102351861260836">
      </trkpt>
      <trkpt lat="47.09461409561416" lon="9.102603692646301">
      </trkpt>
      <trkpt lat="47.09446512189204" lon="9.102848925202359">
      </trkpt>
      <trkpt lat="47.09434649807618" lon="9.103105258590316">
      </trkpt>
      <trkpt lat="47.09430668039444" lon="9.103421146711337">
      </trkpt>
      <trkpt lat="47.0941718950989" lon="9.103677124476048">
      </trkpt>
      <trkpt lat="47.093965512080956" lon="9.103765564444082">
      </trkpt>
      <trkpt lat="47.09375579396356" lon="9.103867925155516">
      </trkpt>
      <trkpt lat="47.0935862642988" lon="9.104076620401152">
      </trkpt>
      <trkpt lat="47.09354317576672" lon="9.104380125837045">
      </trkpt>
      <trkpt lat="47.09343619252715" lon="9.104653250811756">
      </trkpt>
      <trkpt lat="47.09322439795128" lon="9.104756399516095">
      </trkpt>
      <trkpt lat="47.09306123789081" lon="9.104982352829957">
      </trkpt>
      <trkpt lat="47.09287700961368" lon="9.105170965042957">
      </trkpt>
      <trkpt lat="47.092701596513635" lon="9.105376415755554">
      </trkpt>
      <trkpt lat="47.09250828839959" lon="9.105544641387613">
      </trkpt>
      <trkpt lat="47.09231331028051" lon="9.105706059715981">
      </trkpt>
      <trkpt lat="47.09209586628879" lon="9.105770763263582">
      </trkpt>
      <trkpt lat="47.091877051776244" lon="9.105705939408422">
      </trkpt>
      <trkpt lat="47.091658197580635" lon="9.105702258328668">
      </trkpt>
      <trkpt lat="47.09166494563578" lon="9.105459334150408">
      </trkpt>
      <trkpt lat="47.09178711113083" lon="9.1052273383064">
      </trkpt>
      <trkpt lat="47.09156714840487" lon="9.105199970111844">
      </trkpt>
      <trkpt lat="47.091653897299125" lon="9.105004691364355">
      </trkpt>
      <trkpt lat="47.0917448712347" lon="9.104823728503582">
      </trkpt>
      <trkpt lat="47.09152232363717" lon="9.104778385938316">
      </trkpt>
      <trkpt lat="47.09129862449131" lon="9.10477614385893">
      </trkpt>
      <trkpt lat="47.09107773554018" lon="9.104837653648888">
      </trkpt>
      <trkpt lat="47.090862906311344" lon="9.10491678728767">
      </trkpt>
      <trkpt lat="47.09067480879334" lon="9.105097207992804">
      </trkpt>
      <trkpt lat="47.09047996570922" lon="9.105259935545229">
      </trkpt>
      <trkpt lat="47.09028314791515" lon="9.105414039511839">
      </trkpt>
      <trkpt lat="47.09011548295758" lon="9.105631921508007">
      </trkpt>
      <trkpt lat="47.08994313623278" lon="9.10581885741073">
      </trkpt>
      <trkpt lat="47.08972303857567" lon="9.105825882334482">
      </trkpt>
      <trkpt lat="47.089502209316635" lon="9.105770441326875">
      </trkpt>
      <trkpt lat="47.08927760613878" lon="9.105756462499194">
      </trkpt>
      <trkpt lat="47.089052752107555" lon="9.105752188036938">
      </trkpt>
      <trkpt lat="47.08883622615652" lon="9.10569163489526">
      </trkpt>
      <trkpt lat="47.08862831166035" lon="9.105566575149792">
      </trkpt>
      <trkpt lat="47.08842746140611" lon="9.105423094036741">
      </trkpt>
      <trkpt lat="47.088264912832756" lon="9.105203461133119">
      </trkpt>
      <trkpt lat="47.088140533669446" lon="9.104929529520385">
      </trkpt>
      <trkpt lat="47.0880277860053" lon="9.104644707013408">
      </trkpt>
      <trkpt lat="47.08791531111213" lon="9.104359664187983">
      </trkpt>
      <trkpt lat="47.087802591344946" lon="9.104074843509416">
      </trkpt>
      <trkpt lat="47.087692458437935" lon="9.103787805274818">
      </trkpt>
      <trkpt lat="47.08758467263506" lon="9.103498950450643">
      </trkpt>
      <trkpt lat="47.087545560223774" lon="9.10319152971129">
      </trkpt>
      <trkpt lat="47.087599109860676" lon="9.102872722780116">
      </trkpt>
      <trkpt lat="47.08763970665003" lon="9.102551675104927">
      </trkpt>
      <trkpt lat="47.08760934036586" lon="9.102231080886728">
      </trkpt>
      <trkpt lat="47.087547197173095" lon="9.10191482262701">
      </trkpt>
      <trkpt lat="47.0874209427384" lon="9.101670471146427">
      </trkpt>
      <trkpt lat="47.0872176190826" lon="9.101759312254528">
      </trkpt>
      <trkpt lat="47.087006302517054" lon="9.101871520620701">
      </trkpt>
      <trkpt lat="47.0867845696168" lon="9.101853182535292">
      </trkpt>
      <trkpt lat="47.086568827319404" lon="9.101762293432245">
      </trkpt>
      <trkpt lat="47.08636141185319" lon="9.101635593816825">
      </trkpt>
      <trkpt lat="47.08614338168539" lon="9.101567903904483">
      </trkpt>
      <trkpt lat="47.0859252640733" lon="9.101644880587163">
      </trkpt>
      <trkpt lat="47.0857097469655" lon="9.101620545558811">
      </trkpt>
      <trkpt lat="47.08559284020749" lon="9.10133937244102">
      </trkpt>
      <trkpt lat="47.0854743838537" lon="9.101070808462104">
      </trkpt>
      <trkpt lat="47.08526023832351" lon="9.100970698760719">
      </trkpt>
      <trkpt lat="47.08505204801649" lon="9.100846544029736">
      </trkpt>
      <trkpt lat="47.084848952752274" lon="9.100705208839265">
      </trkpt>
      <trkpt lat="47.08464357705021" lon="9.100574305085585">
      </trkpt>
      <trkpt lat="47.084425828584074" lon="9.100541108285485">
      </trkpt>
      <trkpt lat="47.08421642608397" lon="9.100659594604878">
      </trkpt>
      <trkpt lat="47.084016178563836" lon="9.100809373109582">
      </trkpt>
      <trkpt lat="47.08381630570206" lon="9.100959937702257">
      </trkpt>
      <trkpt lat="47.08362590126083" lon="9.101134144844215">
      </trkpt>
      <trkpt lat="47.083446982191354" lon="9.101333471753765">
      </trkpt>
      <trkpt lat="47.083273297046205" lon="9.101539096239382">
      </trkpt>
      <trkpt lat="47.083133385391065" lon="9.101796727256502">
      </trkpt>
      <trkpt lat="47.082985119279805" lon="9.102037057366042">
      </trkpt>
      <trkpt lat="47.082776965288254" lon="9.102136652451824">
      </trkpt>
      <trkpt lat="47.08256079637429" lon="9.102207488832468">
      </trkpt>
      <trkpt lat="47.0823631817539" lon="9.10236158000356">
      </trkpt>
      <trkpt lat="47.08216180363984" lon="9.102499504875945">
      </trkpt>
      <trkpt lat="47.081943335184114" lon="9.10257571119439">
      </trkpt>
      <trkpt lat="47.08174619230814" lon="9.1025005201002">
      </trkpt>
      <trkpt lat="47.08163340024019" lon="9.102231106456003">
      </trkpt>
      <trkpt lat="47.08159307046185" lon="9.101909134108457">
      </trkpt>
      <trkpt lat="47.081502646254044" lon="9.10162323125519">
      </trkpt>
      <trkpt lat="47.08131017872798" lon="9.101567191865959">
      </trkpt>
      <trkpt lat="47.08113792750472" lon="9.101754475097154">
      </trkpt>
      <trkpt lat="47.08108510374543" lon="9.10205787417176">
      </trkpt>
      <trkpt lat="47.08101718079268" lon="9.102366672255886">
      </trkpt>
      <trkpt lat="47.08085198341349" lon="9.102570199232">
      </trkpt>
      <trkpt lat="47.08064214361246" lon="9.102683439146968">
      </trkpt>
      <trkpt lat="47.08042658419785" lon="9.102777201510051">
      </trkpt>
      <trkpt lat="47.080206438434736" lon="9.102841718521447">
      </trkpt>
      <trkpt lat="47.079996023045375" lon="9.10276008892587">
      </trkpt>
      <trkpt lat="47.07982824409097" lon="9.102548645237713">
      </trkpt>
      <trkpt lat="47.07973683261678" lon="9.102254333594018">
      </trkpt>
      <trkpt lat="47.079638237199376" lon="9.10195953441723">
      </trkpt>
      <trkpt lat="47.07943435363999" lon="9.101863229856601">
      </trkpt>
      <trkpt lat="47.07923307893681" lon="9.101716710320265">
      </trkpt>
      <trkpt lat="47.07903562290271" lon="9.101559189393923">
      </trkpt>
      <trkpt lat="47.0788908043468" lon="9.101307518496167">
      </trkpt>
      <trkpt lat="47.07873811595383" lon="9.101070991389337">
      </trkpt>
      <trkpt lat="47.078824029295866" lon="9.100767576050023">
      </trkpt>
      <trkpt lat="47.07895548981056" lon="9.100500668865633">
      </trkpt>
      <trkpt lat="47.07906956837657" lon="9.10021725093978">
      </trkpt>
      <trkpt lat="47.079206850989685" lon="9.09995666926078">
      </trkpt>
      <trkpt lat="47.07932170771185" lon="9.099675408540406">
      </trkpt>
      <trkpt lat="47.07934192151916" lon="9.099363454704264">
      </trkpt>
      <trkpt lat="47.07919348928263" lon="9.099116211476375">
      </trkpt>
      <trkpt lat="47.079036917420254" lon="9.098880227498766">
      </trkpt>
      <trkpt lat="47.07886894208433" lon="9.098661638737354">
      </trkpt>
      <trkpt lat="47.07871531996799" lon="9.09842148336707">
      </trkpt>
      <trkpt lat="47.07859023624277" lon="9.09815364639249">
      </trkpt>
      <trkpt lat="47.078531258148615" lon="9.097836163367129">
      </trkpt>
      <trkpt lat="47.07845861752222" lon="9.097524630385422">
      </trkpt>
      <trkpt lat="47.07837826155499" lon="9.097218803201132">
      </trkpt>
      <trkpt lat="47.07824685004382" lon="9.096955461348772">
      </trkpt>
      <trkpt lat="47.07805999794135" lon="9.096789847580457">
      </trkpt>
      <trkpt lat="47.07783616990977" lon="9.096776451164088">
      </trkpt>
      <trkpt lat="47.07761306517252" lon="9.096817312104013">
      </trkpt>
      <trkpt lat="47.077391829110496" lon="9.096836348815048">
      </trkpt>
      <trkpt lat="47.07718014547574" lon="9.096733277974936">
      </trkpt>
      <trkpt lat="47.07697933385545" lon="9.096593486998348">
      </trkpt>
      <trkpt lat="47.076782959184904" lon="9.096459237821858">
      </trkpt>
      <trkpt lat="47.07662679718914" lon="9.096223412093403">
      </trkpt>
      <trkpt lat="47.07652988753566" lon="9.095937896253849">
      </trkpt>
      <trkpt lat="47.07645572072038" lon="9.095631632108821">
      </trkpt>
      <trkpt lat="47.07631448745727" lon="9.095382281562335">
      </trkpt>
      <trkpt lat="47.07614295912319" lon="9.095169421062966">
      </trkpt>
      <trkpt lat="47.07596377795883" lon="9.094971468645529">
      </trkpt>
      <trkpt lat="47.07576555720005" lon="9.094819904482952">
      </trkpt>
      <trkpt lat="47.075548303911106" lon="9.094758312893523">
      </trkpt>
      <trkpt lat="47.075323674328565" lon="9.094744567919859">
      </trkpt>
      <trkpt lat="47.075099323265825" lon="9.09472222587009">
      </trkpt>
      <trkpt lat="47.07487517029679" lon="9.09469596159719">
      </trkpt>
      <trkpt lat="47.074655448078396" lon="9.09463410263059">
      </trkpt>
      <trkpt lat="47.07443565058899" lon="9.094569703330075">
      </trkpt>
      <trkpt lat="47.074212658694094" lon="9.094527223601482">
      </trkpt>
      <trkpt lat="47.07409109585389" lon="9.094317237367328">
      </trkpt>
      <trkpt lat="47.074087516438" lon="9.093993391229493">
      </trkpt>
      <trkpt lat="47.07410765908111" lon="9.09366566276538">
      </trkpt>
      <trkpt lat="47.07404360066327" lon="9.0933640419229">
      </trkpt>
      <trkpt lat="47.07390964061069" lon="9.09310116035927">
      </trkpt>
      <trkpt lat="47.07376910423789" lon="9.092844271860095">
      </trkpt>
      <trkpt lat="47.07359746402982" lon="9.092637597696877">
      </trkpt>
      <trkpt lat="47.07338506447492" lon="9.092556096677008">
      </trkpt>
      <trkpt lat="47.073161305708474" lon="9.092566736276519">
      </trkpt>
      <trkpt lat="47.07318767326259" lon="9.092749401942687">
      </trkpt>
      <trkpt lat="47.07300939626539" lon="9.092876308387421">
      </trkpt>
      <trkpt lat="47.072784805040015" lon="9.092864881046177">
      </trkpt>
      <trkpt lat="47.072560488096514" lon="9.092841743755498">
      </trkpt>
      <trkpt lat="47.07233641161333" lon="9.092814196983934">
      </trkpt>
      <trkpt lat="47.072123599151276" lon="9.092720708376847">
      </trkpt>
      <trkpt lat="47.07193084136998" lon="9.0925538310853">
      </trkpt>
      <trkpt lat="47.07175094766499" lon="9.092356587894809">
      </trkpt>
      <trkpt lat="47.07160475075075" lon="9.092110326730431">
      </trkpt>
      <trkpt lat="47.07145684266084" lon="9.091863300839941">
      </trkpt>
      <trkpt lat="47.07138241956048" lon="9.091564258022958">
      </trkpt>
      <trkpt lat="47.071376870287025" lon="9.091236743222126">
      </trkpt>
      <trkpt lat="47.071209302028784" lon="9.091145098206251">
      </trkpt>
      <trkpt lat="47.071081" lon="9.091183">
      </trkpt>
    </trkseg>
  </trk>
</gpx>