<?xml version="1.0" encoding="UTF-8"?>
<gpx xmlns="http://www.topografix.com/GPX/1/1" xmlns:xsi="http://www.w3.org/2001/XMLSchema-instance" xsi:schemaLocation="http://www.topografix.com/GPX/1/1 http://www.topografix.com/GPX/1/1/gpx.xsd" version="1.1" creator="Bergbot — https://github.com/suchipizza/BergBot">
  <metadata>
    <name>Clariden-Höhenweg (Klausenpass - Fisetenpass Bergstation)</name>
  </metadata>
  <wpt lat="46.868082009891154" lon="8.854890008849564">
    <name>Klausen Passhöhe</name>
  </wpt>
  <wpt lat="46.885124" lon="8.931737">
    <name>Urnerboden, Sonne</name>
  </wpt>
  <trk>
    <name>Clariden-Höhenweg (Klausenpass - Fisetenpass Bergstation)</name>
    <trkseg>
      <trkpt lat="46.868082019782356" lon="8.854890017699129">
      </trkpt>
      <trkpt lat="46.86813711460821" lon="8.855207921264487">
      </trkpt>
      <trkpt lat="46.8681708282447" lon="8.855529657783558">
      </trkpt>
      <trkpt lat="46.86807449485085" lon="8.855825839419639">
      </trkpt>
      <trkpt lat="46.867965731724105" lon="8.856110381536585">
      </trkpt>
      <trkpt lat="46.86797952242476" lon="8.856430264838744">
      </trkpt>
      <trkpt lat="46.86800457882324" lon="8.85675256352017">
      </trkpt>
      <trkpt lat="46.86798647397194" lon="8.857078964512512">
      </trkpt>
      <trkpt lat="46.86796668081692" lon="8.857405465172842">
      </trkpt>
      <trkpt lat="46.868092174121394" lon="8.857631975410717">
      </trkpt>
      <trkpt lat="46.8679814463083" lon="8.857796094418434">
      </trkpt>
      <trkpt lat="46.86796664544368" lon="8.858098275611596">
      </trkpt>
      <trkpt lat="46.86777495376613" lon="8.858181053557447">
      </trkpt>
      <trkpt lat="46.867676347586254" lon="8.858444859117444">
      </trkpt>
      <trkpt lat="46.867714911768715" lon="8.858763794650155">
      </trkpt>
      <trkpt lat="46.86779224484521" lon="8.859071659374791">
      </trkpt>
      <trkpt lat="46.867820591501484" lon="8.859390408452084">
      </trkpt>
      <trkpt lat="46.867788538360124" lon="8.859713746255437">
      </trkpt>
      <trkpt lat="46.86778875780266" lon="8.860036865348688">
      </trkpt>
      <trkpt lat="46.86774867685799" lon="8.86034978500845">
      </trkpt>
      <trkpt lat="46.86771040809289" lon="8.860669920120355">
      </trkpt>
      <trkpt lat="46.867700435816396" lon="8.860997416945516">
      </trkpt>
      <trkpt lat="46.86760600094661" lon="8.86128620739021">
      </trkpt>
      <trkpt lat="46.86753444841896" lon="8.861594616682508">
      </trkpt>
      <trkpt lat="46.86742488082699" lon="8.861878329284746">
      </trkpt>
      <trkpt lat="46.86733276670007" lon="8.86217665351071">
      </trkpt>
      <trkpt lat="46.86727233258368" lon="8.862492151722739">
      </trkpt>
      <trkpt lat="46.86717729190463" lon="8.862788656665561">
      </trkpt>
      <trkpt lat="46.8670070954587" lon="8.86260920965276">
      </trkpt>
      <trkpt lat="46.866783249056745" lon="8.862634758830518">
      </trkpt>
      <trkpt lat="46.866561538267575" lon="8.862686970676124">
      </trkpt>
      <trkpt lat="46.86639675036794" lon="8.862847039803636">
      </trkpt>
      <trkpt lat="46.8662248842272" lon="8.863011347222937">
      </trkpt>
      <trkpt lat="46.86602663150377" lon="8.86315160890025">
      </trkpt>
      <trkpt lat="46.865893067834904" lon="8.863403903059078">
      </trkpt>
      <trkpt lat="46.865725037686246" lon="8.863587326443055">
      </trkpt>
      <trkpt lat="46.86551627154567" lon="8.863709074406092">
      </trkpt>
      <trkpt lat="46.86531350721856" lon="8.863850516157532">
      </trkpt>
      <trkpt lat="46.865134089877316" lon="8.864045606343128">
      </trkpt>
      <trkpt lat="46.86497093492045" lon="8.864270967248029">
      </trkpt>
      <trkpt lat="46.86478820146469" lon="8.864460082349892">
      </trkpt>
      <trkpt lat="46.86458836363402" lon="8.8643798663318">
      </trkpt>
      <trkpt lat="46.86436977446545" lon="8.864411669359649">
      </trkpt>
      <trkpt lat="46.864148166731326" lon="8.864367199068946">
      </trkpt>
      <trkpt lat="46.86395424080227" lon="8.864204113620106">
      </trkpt>
      <trkpt lat="46.86374747725056" lon="8.864257588355937">
      </trkpt>
      <trkpt lat="46.86358012093799" lon="8.864045174816026">
      </trkpt>
      <trkpt lat="46.8633684251509" lon="8.86393534733229">
      </trkpt>
      <trkpt lat="46.8631570336147" lon="8.863839067381468">
      </trkpt>
      <trkpt lat="46.86293628088861" lon="8.863867836627755">
      </trkpt>
      <trkpt lat="46.86272618205626" lon="8.863984163135553">
      </trkpt>
      <trkpt lat="46.862514065924856" lon="8.864065475456236">
      </trkpt>
      <trkpt lat="46.86228966199213" lon="8.86404433756395">
      </trkpt>
      <trkpt lat="46.86206852689834" lon="8.863992970390715">
      </trkpt>
      <trkpt lat="46.86184837745215" lon="8.863954296367634">
      </trkpt>
      <trkpt lat="46.86162527030871" lon="8.86399231807497">
      </trkpt>
      <trkpt lat="46.86140315656488" lon="8.864043406058379">
      </trkpt>
      <trkpt lat="46.86118305433752" lon="8.864107655723695">
      </trkpt>
      <trkpt lat="46.860962668380864" lon="8.864167063169225">
      </trkpt>
      <trkpt lat="46.860738343385634" lon="8.864186088663175">
      </trkpt>
      <trkpt lat="46.86051743750962" lon="8.864145109697319">
      </trkpt>
      <trkpt lat="46.860295121341025" lon="8.864107403719226">
      </trkpt>
      <trkpt lat="46.86008191312003" lon="8.864014545413784">
      </trkpt>
      <trkpt lat="46.85986509135613" lon="8.863929519787808">
      </trkpt>
      <trkpt lat="46.859641495458526" lon="8.863939504982584">
      </trkpt>
      <trkpt lat="46.85941902151078" lon="8.863987099066758">
      </trkpt>
      <trkpt lat="46.85923703862039" lon="8.864178959437464">
      </trkpt>
      <trkpt lat="46.859050076862246" lon="8.864352688350042">
      </trkpt>
      <trkpt lat="46.85892146935796" lon="8.864596917530557">
      </trkpt>
      <trkpt lat="46.85883522449385" lon="8.864899639956136">
      </trkpt>
      <trkpt lat="46.85883318712251" lon="8.865220661386758">
      </trkpt>
      <trkpt lat="46.85897149561927" lon="8.865468433338553">
      </trkpt>
      <trkpt lat="46.859114838318" lon="8.865720842218943">
      </trkpt>
      <trkpt lat="46.85914839722629" lon="8.866040640048743">
      </trkpt>
      <trkpt lat="46.85900158795118" lon="8.866278273976931">
      </trkpt>
      <trkpt lat="46.85880935250099" lon="8.86644333391213">
      </trkpt>
      <trkpt lat="46.858684028813194" lon="8.866709550434676">
      </trkpt>
      <trkpt lat="46.85855690821412" lon="8.866956012356267">
      </trkpt>
      <trkpt lat="46.858599357301856" lon="8.867206077574735">
      </trkpt>
      <trkpt lat="46.858485901792534" lon="8.86745292589376">
      </trkpt>
      <trkpt lat="46.858396421707305" lon="8.867735712020718">
      </trkpt>
      <trkpt lat="46.85842178801053" lon="8.868058987696083">
      </trkpt>
      <trkpt lat="46.858506488893234" lon="8.8683594404852">
      </trkpt>
      <trkpt lat="46.85862933986665" lon="8.868633834136409">
      </trkpt>
      <trkpt lat="46.85869591654205" lon="8.868930565343451">
      </trkpt>
      <trkpt lat="46.85864730604805" lon="8.869244209805368">
      </trkpt>
      <trkpt lat="46.85866286836114" lon="8.869544113313491">
      </trkpt>
      <trkpt lat="46.85875316046675" lon="8.869844342737597">
      </trkpt>
      <trkpt lat="46.85887256230495" lon="8.870118688792358">
      </trkpt>
      <trkpt lat="46.85899177061588" lon="8.87039509678239">
      </trkpt>
      <trkpt lat="46.859046350454925" lon="8.870707291161487">
      </trkpt>
      <trkpt lat="46.859129010796785" lon="8.871004080993657">
      </trkpt>
      <trkpt lat="46.85928852117267" lon="8.87122647248129">
      </trkpt>
      <trkpt lat="46.859456862810305" lon="8.871442438630801">
      </trkpt>
      <trkpt lat="46.859546099424364" lon="8.87174002431137">
      </trkpt>
      <trkpt lat="46.85942346464675" lon="8.872003138273978">
      </trkpt>
      <trkpt lat="46.85934378400805" lon="8.87230851834746">
      </trkpt>
      <trkpt lat="46.85915747374881" lon="8.87230623230205">
      </trkpt>
      <trkpt lat="46.85894187289438" lon="8.872213147115605">
      </trkpt>
      <trkpt lat="46.858750186752694" lon="8.87204505282175">
      </trkpt>
      <trkpt lat="46.85854240523876" lon="8.871922478707054">
      </trkpt>
      <trkpt lat="46.85835731522136" lon="8.871737558522995">
      </trkpt>
      <trkpt lat="46.858149782469596" lon="8.871612833805985">
      </trkpt>
      <trkpt lat="46.857994192375926" lon="8.871841523142265">
      </trkpt>
      <trkpt lat="46.8579684465403" lon="8.872165820763083">
      </trkpt>
      <trkpt lat="46.85794042480411" lon="8.872491098859062">
      </trkpt>
      <trkpt lat="46.85802222500263" lon="8.872796106763305">
      </trkpt>
      <trkpt lat="46.85813086604836" lon="8.873081099976119">
      </trkpt>
      <trkpt lat="46.85830110811716" lon="8.873294815422451">
      </trkpt>
      <trkpt lat="46.85845235909824" lon="8.873537077954687">
      </trkpt>
      <trkpt lat="46.85858762751406" lon="8.873798858859352">
      </trkpt>
      <trkpt lat="46.85868346305751" lon="8.87408745456576">
      </trkpt>
      <trkpt lat="46.858774109268516" lon="8.874373282216279">
      </trkpt>
      <trkpt lat="46.85892585992604" lon="8.874615129612724">
      </trkpt>
      <trkpt lat="46.85910812109326" lon="8.874803980840385">
      </trkpt>
      <trkpt lat="46.85917643870156" lon="8.875109136261138">
      </trkpt>
      <trkpt lat="46.85923802946417" lon="8.875424417707087">
      </trkpt>
      <trkpt lat="46.85929517440625" lon="8.875739593753512">
      </trkpt>
      <trkpt lat="46.859428175251" lon="8.876001947139097">
      </trkpt>
      <trkpt lat="46.85961385999678" lon="8.876181926979331">
      </trkpt>
      <trkpt lat="46.85983115913332" lon="8.876262331611818">
      </trkpt>
      <trkpt lat="46.86003126795218" lon="8.876411852754138">
      </trkpt>
      <trkpt lat="46.86023233431366" lon="8.876547955924678">
      </trkpt>
      <trkpt lat="46.860456733033296" lon="8.876562027086633">
      </trkpt>
      <trkpt lat="46.860681283092326" lon="8.876545715883086">
      </trkpt>
      <trkpt lat="46.86090292154531" lon="8.876520449755796">
      </trkpt>
      <trkpt lat="46.86111286119592" lon="8.876440885317848">
      </trkpt>
      <trkpt lat="46.861322963977955" lon="8.876552374658118">
      </trkpt>
      <trkpt lat="46.8614833771082" lon="8.876760167986202">
      </trkpt>
      <trkpt lat="46.86162093851711" lon="8.876997126014528">
      </trkpt>
      <trkpt lat="46.86181940950705" lon="8.87715090553827">
      </trkpt>
      <trkpt lat="46.86200280187631" lon="8.877338555843973">
      </trkpt>
      <trkpt lat="46.862163511893066" lon="8.877566648063066">
      </trkpt>
      <trkpt lat="46.86233976668315" lon="8.877762324959434">
      </trkpt>
      <trkpt lat="46.8625313961345" lon="8.87793313620425">
      </trkpt>
      <trkpt lat="46.86252721518965" lon="8.878154911374478">
      </trkpt>
      <trkpt lat="46.862470117025886" lon="8.878458660095756">
      </trkpt>
      <trkpt lat="46.8624733911611" lon="8.87878602203529">
      </trkpt>
      <trkpt lat="46.86240795275473" lon="8.879096176206565">
      </trkpt>
      <trkpt lat="46.862370745699316" lon="8.879418670893024">
      </trkpt>
      <trkpt lat="46.86232183089869" lon="8.879738417053327">
      </trkpt>
      <trkpt lat="46.86224052715574" lon="8.880041877186093">
      </trkpt>
      <trkpt lat="46.86222489404196" lon="8.880367988654914">
      </trkpt>
      <trkpt lat="46.862241758628095" lon="8.880694908939432">
      </trkpt>
      <trkpt lat="46.86226413518086" lon="8.881021126129218">
      </trkpt>
      <trkpt lat="46.86229045078145" lon="8.88134673123716">
      </trkpt>
      <trkpt lat="46.862338711365005" lon="8.881664216804852">
      </trkpt>
      <trkpt lat="46.86243843285486" lon="8.881956934631487">
      </trkpt>
      <trkpt lat="46.86252770887777" lon="8.882254930281945">
      </trkpt>
      <trkpt lat="46.86263716597935" lon="8.882533963617977">
      </trkpt>
      <trkpt lat="46.86279715942425" lon="8.882762777255696">
      </trkpt>
      <trkpt lat="46.862992875519545" lon="8.882913574346">
      </trkpt>
      <trkpt lat="46.86321149746684" lon="8.882916048925154">
      </trkpt>
      <trkpt lat="46.86340831216193" lon="8.882768874324569">
      </trkpt>
      <trkpt lat="46.863624646389844" lon="8.882716201973452">
      </trkpt>
      <trkpt lat="46.863848666904055" lon="8.882688242344619">
      </trkpt>
      <trkpt lat="46.86407198078602" lon="8.88271491992248">
      </trkpt>
      <trkpt lat="46.864287423002175" lon="8.882805546838567">
      </trkpt>
      <trkpt lat="46.864510532933075" lon="8.882813740410002">
      </trkpt>
      <trkpt lat="46.86473487604777" lon="8.88283362330711">
      </trkpt>
      <trkpt lat="46.86494728278348" lon="8.882938936805278">
      </trkpt>
      <trkpt lat="46.865169706427224" lon="8.882894474377842">
      </trkpt>
      <trkpt lat="46.865379851351385" lon="8.883011063016948">
      </trkpt>
      <trkpt lat="46.86557905140613" lon="8.883163002589052">
      </trkpt>
      <trkpt lat="46.86576465968053" lon="8.8833470703864">
      </trkpt>
      <trkpt lat="46.865979223292015" lon="8.883444244887022">
      </trkpt>
      <trkpt lat="46.866193926935374" lon="8.88351979203864">
      </trkpt>
      <trkpt lat="46.86635360280707" lon="8.883750545272873">
      </trkpt>
      <trkpt lat="46.86652079893786" lon="8.883969722793168">
      </trkpt>
      <trkpt lat="46.866673201464614" lon="8.88420913063903">
      </trkpt>
      <trkpt lat="46.866796635812996" lon="8.88448318190053">
      </trkpt>
      <trkpt lat="46.866943596275355" lon="8.884729427571722">
      </trkpt>
      <trkpt lat="46.86711246889341" lon="8.88494562693703">
      </trkpt>
      <trkpt lat="46.8672252110154" lon="8.885223704608213">
      </trkpt>
      <trkpt lat="46.86737857534425" lon="8.88545873672008">
      </trkpt>
      <trkpt lat="46.86755397324179" lon="8.885663714241963">
      </trkpt>
      <trkpt lat="46.86772840267016" lon="8.885870653239968">
      </trkpt>
      <trkpt lat="46.86790644514043" lon="8.886070936772194">
      </trkpt>
      <trkpt lat="46.86807092197668" lon="8.886294362745806">
      </trkpt>
      <trkpt lat="46.86819137933519" lon="8.886570692669997">
      </trkpt>
      <trkpt lat="46.868340570864035" lon="8.886815759158933">
      </trkpt>
      <trkpt lat="46.86847178299075" lon="8.887081490410448">
      </trkpt>
      <trkpt lat="46.86863786289069" lon="8.887302162758237">
      </trkpt>
      <trkpt lat="46.86877962366484" lon="8.88755566523472">
      </trkpt>
      <trkpt lat="46.86896169331191" lon="8.887747562698957">
      </trkpt>
      <trkpt lat="46.86915101416181" lon="8.887913447194252">
      </trkpt>
      <trkpt lat="46.86925550414996" lon="8.888203803853251">
      </trkpt>
      <trkpt lat="46.86935803800372" lon="8.888495626868446">
      </trkpt>
      <trkpt lat="46.869491103217904" lon="8.88872878666378">
      </trkpt>
      <trkpt lat="46.8697050730624" lon="8.888827734766197">
      </trkpt>
      <trkpt lat="46.86990564966842" lon="8.888972977147345">
      </trkpt>
      <trkpt lat="46.869898628208176" lon="8.88919583001198">
      </trkpt>
      <trkpt lat="46.869831246746855" lon="8.88949658870197">
      </trkpt>
      <trkpt lat="46.86983988808685" lon="8.889822538518937">
      </trkpt>
      <trkpt lat="46.86981633016665" lon="8.890146147908027">
      </trkpt>
      <trkpt lat="46.86988331042902" lon="8.890447061123915">
      </trkpt>
      <trkpt lat="46.870020247329414" lon="8.890704750121227">
      </trkpt>
      <trkpt lat="46.87020360448887" lon="8.89089121825828">
      </trkpt>
      <trkpt lat="46.87036975947309" lon="8.891111041647722">
      </trkpt>
      <trkpt lat="46.87047366309154" lon="8.891400390920866">
      </trkpt>
      <trkpt lat="46.87054382097861" lon="8.891710997910433">
      </trkpt>
      <trkpt lat="46.87066099393021" lon="8.891990798642317">
      </trkpt>
      <trkpt lat="46.87076747110051" lon="8.892279624969813">
      </trkpt>
      <trkpt lat="46.870864183123075" lon="8.892574048643061">
      </trkpt>
      <trkpt lat="46.87092328610121" lon="8.892889994872462">
      </trkpt>
      <trkpt lat="46.87101526739213" lon="8.893187752764476">
      </trkpt>
      <trkpt lat="46.87112628753708" lon="8.893471586254755">
      </trkpt>
      <trkpt lat="46.87120865144414" lon="8.893776639228445">
      </trkpt>
      <trkpt lat="46.87128511868074" lon="8.894085008938802">
      </trkpt>
      <trkpt lat="46.87134228174952" lon="8.894398894402114">
      </trkpt>
      <trkpt lat="46.871356942085264" lon="8.894726106843404">
      </trkpt>
      <trkpt lat="46.871370509125896" lon="8.895053376971383">
      </trkpt>
      <trkpt lat="46.871391732652235" lon="8.895379111774965">
      </trkpt>
      <trkpt lat="46.87146972679338" lon="8.895679323617289">
      </trkpt>
      <trkpt lat="46.871593638712035" lon="8.895952970577195">
      </trkpt>
      <trkpt lat="46.871722601611715" lon="8.896221499079656">
      </trkpt>
      <trkpt lat="46.87185373978453" lon="8.89648788444334">
      </trkpt>
      <trkpt lat="46.871988089651985" lon="8.89675082398886">
      </trkpt>
      <trkpt lat="46.87219219646267" lon="8.896881368447449">
      </trkpt>
      <trkpt lat="46.872392312033945" lon="8.897030596630595">
      </trkpt>
      <trkpt lat="46.87257333937438" lon="8.897219749770201">
      </trkpt>
      <trkpt lat="46.872705342808025" lon="8.897471365268911">
      </trkpt>
      <trkpt lat="46.87292008889589" lon="8.897568442764186">
      </trkpt>
      <trkpt lat="46.873124042212616" lon="8.897689125242255">
      </trkpt>
      <trkpt lat="46.87306188988354" lon="8.897860568661056">
      </trkpt>
      <trkpt lat="46.87286569941242" lon="8.898020217497388">
      </trkpt>
      <trkpt lat="46.872663363826" lon="8.89816130801521">
      </trkpt>
      <trkpt lat="46.87252011030946" lon="8.898391480730822">
      </trkpt>
      <trkpt lat="46.87247009299388" lon="8.898705074949673">
      </trkpt>
      <trkpt lat="46.872498780998775" lon="8.899026301775272">
      </trkpt>
      <trkpt lat="46.87258515737037" lon="8.899326927426264">
      </trkpt>
      <trkpt lat="46.87266048331304" lon="8.899634549211276">
      </trkpt>
      <trkpt lat="46.87270764146151" lon="8.899954804991795">
      </trkpt>
      <trkpt lat="46.87272558878903" lon="8.900280970922145">
      </trkpt>
      <trkpt lat="46.87272968283477" lon="8.900608816987116">
      </trkpt>
      <trkpt lat="46.87270645064327" lon="8.900934070214637">
      </trkpt>
      <trkpt lat="46.872674125127254" lon="8.901258584123678">
      </trkpt>
      <trkpt lat="46.872651182073696" lon="8.901584693869765">
      </trkpt>
      <trkpt lat="46.87263538064245" lon="8.90191179048487">
      </trkpt>
      <trkpt lat="46.87262105619718" lon="8.902239048506614">
      </trkpt>
      <trkpt lat="46.87260760585394" lon="8.902566384253609">
      </trkpt>
      <trkpt lat="46.872592145207456" lon="8.902893524344911">
      </trkpt>
      <trkpt lat="46.87257218930757" lon="8.903220137500906">
      </trkpt>
      <trkpt lat="46.8725567473218" lon="8.903547237782043">
      </trkpt>
      <trkpt lat="46.87254815547075" lon="8.90387489764714">
      </trkpt>
      <trkpt lat="46.87253626794982" lon="8.904202330598768">
      </trkpt>
      <trkpt lat="46.87249869541212" lon="8.904524906631645">
      </trkpt>
      <trkpt lat="46.872494573011586" lon="8.90485065003015">
      </trkpt>
      <trkpt lat="46.87250777705545" lon="8.905178002266668">
      </trkpt>
      <trkpt lat="46.8724959790441" lon="8.905504730578214">
      </trkpt>
      <trkpt lat="46.87247055476206" lon="8.905830525719919">
      </trkpt>
      <trkpt lat="46.872493088161484" lon="8.906154159755316">
      </trkpt>
      <trkpt lat="46.87252717105291" lon="8.906478270874166">
      </trkpt>
      <trkpt lat="46.87261431577143" lon="8.90677735728738">
      </trkpt>
      <trkpt lat="46.87264601801453" lon="8.907097554397502">
      </trkpt>
      <trkpt lat="46.8726529584335" lon="8.907425285995924">
      </trkpt>
      <trkpt lat="46.87268355450432" lon="8.907749761357168">
      </trkpt>
      <trkpt lat="46.87281033121281" lon="8.90801457306931">
      </trkpt>
      <trkpt lat="46.87296001240389" lon="8.908259230415611">
      </trkpt>
      <trkpt lat="46.873175187853015" lon="8.908332336204962">
      </trkpt>
      <trkpt lat="46.873380776423645" lon="8.908463564247448">
      </trkpt>
      <trkpt lat="46.8735452540227" lon="8.908685961411466">
      </trkpt>
      <trkpt lat="46.87375418281105" lon="8.908805651796326">
      </trkpt>
      <trkpt lat="46.87394752729756" lon="8.908969920033014">
      </trkpt>
      <trkpt lat="46.8740943945175" lon="8.90921824234295">
      </trkpt>
      <trkpt lat="46.874241464062045" lon="8.909465394302764">
      </trkpt>
      <trkpt lat="46.87441342378583" lon="8.909676690260717">
      </trkpt>
      <trkpt lat="46.87457839120513" lon="8.909897064247348">
      </trkpt>
      <trkpt lat="46.8747298397659" lon="8.910135854244775">
      </trkpt>
      <trkpt lat="46.87491914261537" lon="8.910309661599127">
      </trkpt>
      <trkpt lat="46.875098446716386" lon="8.910491320726663">
      </trkpt>
      <trkpt lat="46.875225994151386" lon="8.910760592689368">
      </trkpt>
      <trkpt lat="46.875359094961865" lon="8.911021833186817">
      </trkpt>
      <trkpt lat="46.875503125272495" lon="8.911272428346274">
      </trkpt>
      <trkpt lat="46.875657173071865" lon="8.91150698930939">
      </trkpt>
      <trkpt lat="46.8757985763191" lon="8.91175528714691">
      </trkpt>
      <trkpt lat="46.875916854461124" lon="8.912034183749421">
      </trkpt>
      <trkpt lat="46.87592480042979" lon="8.912347269788516">
      </trkpt>
      <trkpt lat="46.87592441095561" lon="8.91267448502638">
      </trkpt>
      <trkpt lat="46.87593766798083" lon="8.913001835532137">
      </trkpt>
      <trkpt lat="46.87606997770055" lon="8.91326101392769">
      </trkpt>
      <trkpt lat="46.87618054746993" lon="8.913546305274194">
      </trkpt>
      <trkpt lat="46.8763149297179" lon="8.913809138494381">
      </trkpt>
      <trkpt lat="46.87643569889659" lon="8.91408519479687">
      </trkpt>
      <trkpt lat="46.876500216861935" lon="8.914397621646833">
      </trkpt>
      <trkpt lat="46.87662843137446" lon="8.914663605820124">
      </trkpt>
      <trkpt lat="46.87669311064687" lon="8.914965810875133">
      </trkpt>
      <trkpt lat="46.876850024817614" lon="8.915178555604179">
      </trkpt>
      <trkpt lat="46.8768932423478" lon="8.915497029214631">
      </trkpt>
      <trkpt lat="46.87689515567449" lon="8.915824952880932">
      </trkpt>
      <trkpt lat="46.87695942737674" lon="8.916118062416906">
      </trkpt>
      <trkpt lat="46.87711843290861" lon="8.916349236258892">
      </trkpt>
      <trkpt lat="46.877294543320836" lon="8.916552453854562">
      </trkpt>
      <trkpt lat="46.877482291811965" lon="8.916732690086857">
      </trkpt>
      <trkpt lat="46.87764748706497" lon="8.916946711081216">
      </trkpt>
      <trkpt lat="46.87777541270553" lon="8.917216061649171">
      </trkpt>
      <trkpt lat="46.87789224251886" lon="8.917496246255597">
      </trkpt>
      <trkpt lat="46.87801697434843" lon="8.917768530060668">
      </trkpt>
      <trkpt lat="46.87813833042538" lon="8.918043766449149">
      </trkpt>
      <trkpt lat="46.87824393518033" lon="8.918333257806763">
      </trkpt>
      <trkpt lat="46.87836983876207" lon="8.918602676709021">
      </trkpt>
      <trkpt lat="46.87850583126056" lon="8.918863610548422">
      </trkpt>
      <trkpt lat="46.87863493142818" lon="8.919132135737671">
      </trkpt>
      <trkpt lat="46.87872666517261" lon="8.919427928702927">
      </trkpt>
      <trkpt lat="46.87883320764186" lon="8.91971302454641">
      </trkpt>
      <trkpt lat="46.87894823896465" lon="8.919994355502414">
      </trkpt>
      <trkpt lat="46.87907673941091" lon="8.920262254479796">
      </trkpt>
      <trkpt lat="46.879238823583734" lon="8.92048744596352">
      </trkpt>
      <trkpt lat="46.8793844023953" lon="8.920734878628753">
      </trkpt>
      <trkpt lat="46.87951632436699" lon="8.921000473870535">
      </trkpt>
      <trkpt lat="46.87965430788571" lon="8.921259318171902">
      </trkpt>
      <trkpt lat="46.87979205147701" lon="8.921518536329142">
      </trkpt>
      <trkpt lat="46.87991671594063" lon="8.921791165330935">
      </trkpt>
      <trkpt lat="46.88004666745625" lon="8.922058592712784">
      </trkpt>
      <trkpt lat="46.88016325543891" lon="8.922338456096403">
      </trkpt>
      <trkpt lat="46.880286395045175" lon="8.92261264762984">
      </trkpt>
      <trkpt lat="46.88036975638955" lon="8.922915140015913">
      </trkpt>
      <trkpt lat="46.88049591400699" lon="8.923182793043845">
      </trkpt>
      <trkpt lat="46.88062626276877" lon="8.92344991739049">
      </trkpt>
      <trkpt lat="46.88078203358987" lon="8.923685141376916">
      </trkpt>
      <trkpt lat="46.88089746992728" lon="8.92396430467359">
      </trkpt>
      <trkpt lat="46.88098711538167" lon="8.924264866138971">
      </trkpt>
      <trkpt lat="46.881045817891405" lon="8.924580994111954">
      </trkpt>
      <trkpt lat="46.88111842244331" lon="8.924891262289442">
      </trkpt>
      <trkpt lat="46.8811764049389" lon="8.925208065087354">
      </trkpt>
      <trkpt lat="46.881308368202376" lon="8.92547148544651">
      </trkpt>
      <trkpt lat="46.88148430742404" lon="8.925674788359258">
      </trkpt>
      <trkpt lat="46.881631508990345" lon="8.925922225985035">
      </trkpt>
      <trkpt lat="46.881795389299285" lon="8.926146665123186">
      </trkpt>
      <trkpt lat="46.881899971275416" lon="8.9264360107051">
      </trkpt>
      <trkpt lat="46.88200999651612" lon="8.926722040306643">
      </trkpt>
      <trkpt lat="46.882125048385745" lon="8.927003844965395">
      </trkpt>
      <trkpt lat="46.88225756226253" lon="8.927268800121649">
      </trkpt>
      <trkpt lat="46.88235738495922" lon="8.927562607248545">
      </trkpt>
      <trkpt lat="46.88248000794152" lon="8.927837367966882">
      </trkpt>
      <trkpt lat="46.88256958388723" lon="8.928137409131258">
      </trkpt>
      <trkpt lat="46.88259413244462" lon="8.928463261968531">
      </trkpt>
      <trkpt lat="46.88265309683966" lon="8.928779255898766">
      </trkpt>
      <trkpt lat="46.882761085417" lon="8.929066899007314">
      </trkpt>
      <trkpt lat="46.88285523203849" lon="8.929364733093283">
      </trkpt>
      <trkpt lat="46.8829613225175" lon="8.929653383650287">
      </trkpt>
      <trkpt lat="46.883104376099304" lon="8.929906417455895">
      </trkpt>
      <trkpt lat="46.883239564294065" lon="8.930168500199285">
      </trkpt>
      <trkpt lat="46.883382291987594" lon="8.930421933829008">
      </trkpt>
      <trkpt lat="46.88353199296464" lon="8.930666683691719">
      </trkpt>
      <trkpt lat="46.88367900497153" lon="8.930914843048441">
      </trkpt>
      <trkpt lat="46.88383579336902" lon="8.931149756366976">
      </trkpt>
      <trkpt lat="46.88400863537427" lon="8.931359196159162">
      </trkpt>
      <trkpt lat="46.884196359477976" lon="8.931539756203808">
      </trkpt>
      <trkpt lat="46.88437505708054" lon="8.931736635572408">
      </trkpt>
      <trkpt lat="46.88451363367254" lon="8.931994806501056">
      </trkpt>
      <trkpt lat="46.884644400669764" lon="8.932260185157256">
      </trkpt>
      <trkpt lat="46.88480119030884" lon="8.932489819836196">
      </trkpt>
      <trkpt lat="46.884896857230856" lon="8.932786651814224">
      </trkpt>
      <trkpt lat="46.88499561582643" lon="8.933081323655703">
      </trkpt>
      <trkpt lat="46.88509797026498" lon="8.933373347793824">
      </trkpt>
      <trkpt lat="46.88515230349316" lon="8.93307060441758">
      </trkpt>
      <trkpt lat="46.88516211509794" lon="8.93274301489964">
      </trkpt>
      <trkpt lat="46.88515165762518" lon="8.932415488213362">
      </trkpt>
      <trkpt lat="46.88516138871652" lon="8.932088309224131">
      </trkpt>
      <trkpt lat="46.88512462674207" lon="8.93176491695343">
      </trkpt>
      <trkpt lat="46.885124" lon="8.931737">
      </trkpt>
    </trkseg>
  </trk>
</gpx>