<?xml version="1.0" encoding="UTF-8"?>
<gpx xmlns="http://www.topografix.com/GPX/1/1" xmlns:xsi="http://www.w3.org/2001/XMLSchema-instance" xsi:schemaLocation="http://www.topografix.com/GPX/1/1 http://www.topografix.com/GPX/1/1/gpx.xsd" version="1.1" creator="Bergbot — https://github.com/suchipizza/BergBot">
  <metadata>
    <name>Weg der Schweiz (Sisikon - Brunnen)</name>
  </metadata>
  <wpt lat="46.94877100999039" lon="8.62107000859784">
    <name>Sisikon, Bahnhof</name>
  </wpt>
  <wpt lat="46.993752" lon="8.605363">
    <name>Brunnen (See)</name>
  </wpt>
  <trk>
    <name>Weg der Schweiz (Sisikon - Brunnen)</name>
    <trkseg>
      <trkpt lat="46.94877101998076" lon="8.621070017195681">
      </trkpt>
      <trkpt lat="46.94888521689422" lon="8.621352912529815">
      </trkpt>
      <trkpt lat="46.94900464497679" lon="8.621631163535673">
      </trkpt>
      <trkpt lat="46.94911814752939" lon="8.621914607770153">
      </trkpt>
      <trkpt lat="46.949263260164294" lon="8.622165258664364">
      </trkpt>
      <trkpt lat="46.949454630017115" lon="8.622337597146606">
      </trkpt>
      <trkpt lat="46.94965728014515" lon="8.62247924010476">
      </trkpt>
      <trkpt lat="46.94981908231176" lon="8.622691831121672">
      </trkpt>
      <trkpt lat="46.94983440813424" lon="8.623019343620705">
      </trkpt>
      <trkpt lat="46.94982766249265" lon="8.623347035090047">
      </trkpt>
      <trkpt lat="46.94978378131876" lon="8.623669117396691">
      </trkpt>
      <trkpt lat="46.94973989423406" lon="8.623991185229917">
      </trkpt>
      <trkpt lat="46.94970266819396" lon="8.624315010448685">
      </trkpt>
      <trkpt lat="46.94968214165143" lon="8.624640721228879">
      </trkpt>
      <trkpt lat="46.94977786281631" lon="8.624867648814">
      </trkpt>
      <trkpt lat="46.949992569420125" lon="8.624931630937068">
      </trkpt>
      <trkpt lat="46.95014385404316" lon="8.624789475840723">
      </trkpt>
      <trkpt lat="46.950331024625115" lon="8.624621861718847">
      </trkpt>
      <trkpt lat="46.95048716189543" lon="8.624771564474395">
      </trkpt>
      <trkpt lat="46.95062146837329" lon="8.624863189491089">
      </trkpt>
      <trkpt lat="46.9507943376318" lon="8.624660867661872">
      </trkpt>
      <trkpt lat="46.95094212036939" lon="8.624413509365343">
      </trkpt>
      <trkpt lat="46.9510841928409" lon="8.624158961248352">
      </trkpt>
      <trkpt lat="46.95122585744526" lon="8.623903916648864">
      </trkpt>
      <trkpt lat="46.95140793788704" lon="8.62372950048237">
      </trkpt>
      <trkpt lat="46.95161495917502" lon="8.623601474763314">
      </trkpt>
      <trkpt lat="46.951828426243026" lon="8.623502667412913">
      </trkpt>
      <trkpt lat="46.95204926377062" lon="8.623503182377219">
      </trkpt>
      <trkpt lat="46.95227314419943" lon="8.623520228430444">
      </trkpt>
      <trkpt lat="46.95248376340965" lon="8.623412830784439">
      </trkpt>
      <trkpt lat="46.95270430458549" lon="8.623440225238218">
      </trkpt>
      <trkpt lat="46.95284900372499" lon="8.623681315152167">
      </trkpt>
      <trkpt lat="46.95302527919805" lon="8.62388411244253">
      </trkpt>
      <trkpt lat="46.95323068606862" lon="8.623978089956177">
      </trkpt>
      <trkpt lat="46.95300668394375" lon="8.624000714591004">
      </trkpt>
      <trkpt lat="46.952789774562156" lon="8.623933250253234">
      </trkpt>
      <trkpt lat="46.95261857470267" lon="8.623763639707617">
      </trkpt>
      <trkpt lat="46.952433573503676" lon="8.62393129302451">
      </trkpt>
      <trkpt lat="46.952285956667524" lon="8.624115779785434">
      </trkpt>
      <trkpt lat="46.95213441842802" lon="8.62421112411165">
      </trkpt>
      <trkpt lat="46.952151214014286" lon="8.624522109386211">
      </trkpt>
      <trkpt lat="46.95197494110757" lon="8.624721731446602">
      </trkpt>
      <trkpt lat="46.951844904775264" lon="8.624933712068765">
      </trkpt>
      <trkpt lat="46.95189746573807" lon="8.625238102795294">
      </trkpt>
      <trkpt lat="46.95202441963594" lon="8.62550895046903">
      </trkpt>
      <trkpt lat="46.95218676335158" lon="8.625728467391859">
      </trkpt>
      <trkpt lat="46.95239553149656" lon="8.62573388337856">
      </trkpt>
      <trkpt lat="46.95259467157755" lon="8.625839585481295">
      </trkpt>
      <trkpt lat="46.95278560632789" lon="8.626013085370651">
      </trkpt>
      <trkpt lat="46.95300172720081" lon="8.626046452216329">
      </trkpt>
      <trkpt lat="46.95319927123769" lon="8.625905515017076">
      </trkpt>
      <trkpt lat="46.95318362004022" lon="8.626105734892244">
      </trkpt>
      <trkpt lat="46.953198914483835" lon="8.626290580237033">
      </trkpt>
      <trkpt lat="46.95337806310119" lon="8.62614994201744">
      </trkpt>
      <trkpt lat="46.95357597860056" lon="8.62630450993048">
      </trkpt>
      <trkpt lat="46.953770100950486" lon="8.626462523631556">
      </trkpt>
      <trkpt lat="46.95398639078702" lon="8.626551623199013">
      </trkpt>
      <trkpt lat="46.95419879977679" lon="8.626596464744226">
      </trkpt>
      <trkpt lat="46.95439958245032" lon="8.626596674163025">
      </trkpt>
      <trkpt lat="46.95457913533802" lon="8.62679440853027">
      </trkpt>
      <trkpt lat="46.95476649121834" lon="8.626973832876141">
      </trkpt>
      <trkpt lat="46.95496969451084" lon="8.627114185909377">
      </trkpt>
      <trkpt lat="46.955182700125164" lon="8.627210895832615">
      </trkpt>
      <trkpt lat="46.955405492341946" lon="8.62722145333958">
      </trkpt>
      <trkpt lat="46.95562885582835" lon="8.627183737328656">
      </trkpt>
      <trkpt lat="46.955849963849715" lon="8.627130255117404">
      </trkpt>
      <trkpt lat="46.956067721955" lon="8.627048379390654">
      </trkpt>
      <trkpt lat="46.95627998086972" lon="8.62694501276513">
      </trkpt>
      <trkpt lat="46.95645915930089" lon="8.626758508938563">
      </trkpt>
      <trkpt lat="46.956618564587494" lon="8.626528781674496">
      </trkpt>
      <trkpt lat="46.95680080930444" lon="8.626337319316397">
      </trkpt>
      <trkpt lat="46.956970242035894" lon="8.626127760789435">
      </trkpt>
      <trkpt lat="46.95714860621844" lon="8.625946693965645">
      </trkpt>
      <trkpt lat="46.95728484538586" lon="8.625726886864589">
      </trkpt>
      <trkpt lat="46.957420819372075" lon="8.625485231151243">
      </trkpt>
      <trkpt lat="46.95762414578021" lon="8.625355139435642">
      </trkpt>
      <trkpt lat="46.95784254232593" lon="8.625277916263487">
      </trkpt>
      <trkpt lat="46.95805840606066" lon="8.62531768362823">
      </trkpt>
      <trkpt lat="46.95826203549178" lon="8.625454444272059">
      </trkpt>
      <trkpt lat="46.95847522361128" lon="8.62554599365261">
      </trkpt>
      <trkpt lat="46.95864049641978" lon="8.625375059320614">
      </trkpt>
      <trkpt lat="46.95883722079193" lon="8.625233675981761">
      </trkpt>
      <trkpt lat="46.95902850151083" lon="8.6250672826086">
      </trkpt>
      <trkpt lat="46.95889221227995" lon="8.62480612188632">
      </trkpt>
      <trkpt lat="46.958793405992" lon="8.624511160098058">
      </trkpt>
      <trkpt lat="46.95873094467613" lon="8.624195652322731">
      </trkpt>
      <trkpt lat="46.9586839434658" lon="8.623874465103231">
      </trkpt>
      <trkpt lat="46.95865047908838" lon="8.623550170804076">
      </trkpt>
      <trkpt lat="46.95867777844021" lon="8.623228345967407">
      </trkpt>
      <trkpt lat="46.95881505911255" lon="8.622968584282507">
      </trkpt>
      <trkpt lat="46.95897648117862" lon="8.622740115557619">
      </trkpt>
      <trkpt lat="46.959152998511925" lon="8.622536844258242">
      </trkpt>
      <trkpt lat="46.959342458963505" lon="8.62236017749812">
      </trkpt>
      <trkpt lat="46.959542892589674" lon="8.622211432939693">
      </trkpt>
      <trkpt lat="46.95975069348934" lon="8.622086314555318">
      </trkpt>
      <trkpt lat="46.95996526394065" lon="8.621988380656848">
      </trkpt>
      <trkpt lat="46.96017332993092" lon="8.621863942880372">
      </trkpt>
      <trkpt lat="46.96037593382153" lon="8.621721414949315">
      </trkpt>
      <trkpt lat="46.96057916035227" lon="8.621580819792156">
      </trkpt>
      <trkpt lat="46.96078111703561" lon="8.621439430361866">
      </trkpt>
      <trkpt lat="46.96094904175239" lon="8.621221551574063">
      </trkpt>
      <trkpt lat="46.96109738723623" lon="8.620975201892604">
      </trkpt>
      <trkpt lat="46.961267491566936" lon="8.62076042675253">
      </trkpt>
      <trkpt lat="46.961442298699424" lon="8.62055398510502">
      </trkpt>
      <trkpt lat="46.961605335970425" lon="8.620327869150804">
      </trkpt>
      <trkpt lat="46.96175976780503" lon="8.62008912364305">
      </trkpt>
      <trkpt lat="46.96191798545374" lon="8.61985571063829">
      </trkpt>
      <trkpt lat="46.962075167620085" lon="8.619620885391527">
      </trkpt>
      <trkpt lat="46.962246638260275" lon="8.619414129426868">
      </trkpt>
      <trkpt lat="46.962463039304396" lon="8.619332457542162">
      </trkpt>
      <trkpt lat="46.96268736739947" lon="8.619347789679306">
      </trkpt>
      <trkpt lat="46.96290866603119" lon="8.619406114606145">
      </trkpt>
      <trkpt lat="46.963129779272094" lon="8.619464231094444">
      </trkpt>
      <trkpt lat="46.96335409756394" lon="8.619483939057734">
      </trkpt>
      <trkpt lat="46.96357842538026" lon="8.619468092967736">
      </trkpt>
      <trkpt lat="46.96379946454952" lon="8.619408844080183">
      </trkpt>
      <trkpt lat="46.96401538536953" lon="8.619317859096862">
      </trkpt>
      <trkpt lat="46.96422785689459" lon="8.619217796705616">
      </trkpt>
      <trkpt lat="46.964440331146115" lon="8.619165624005824">
      </trkpt>
      <trkpt lat="46.96458155537169" lon="8.618913689246371">
      </trkpt>
      <trkpt lat="46.96466943229226" lon="8.618611845694717">
      </trkpt>
      <trkpt lat="46.964740655256016" lon="8.61830066228878">
      </trkpt>
      <trkpt lat="46.964843810740064" lon="8.61801168095304">
      </trkpt>
      <trkpt lat="46.964981513682154" lon="8.61775405651959">
      </trkpt>
      <trkpt lat="46.96508371508927" lon="8.617461462372392">
      </trkpt>
      <trkpt lat="46.9652013157187" lon="8.617188901856315">
      </trkpt>
      <trkpt lat="46.965387275018415" lon="8.617006374120006">
      </trkpt>
      <trkpt lat="46.96558749770227" lon="8.61685763835517">
      </trkpt>
      <trkpt lat="46.965785699541236" lon="8.616708041178825">
      </trkpt>
      <trkpt lat="46.966004375804964" lon="8.616634153992212">
      </trkpt>
      <trkpt lat="46.96622777257195" lon="8.61661137080552">
      </trkpt>
      <trkpt lat="46.96644827934129" lon="8.616662034429808">
      </trkpt>
      <trkpt lat="46.96665058196276" lon="8.61679927328783">
      </trkpt>
      <trkpt lat="46.966840575648014" lon="8.61696802367197">
      </trkpt>
      <trkpt lat="46.96705704249273" lon="8.617054121437741">
      </trkpt>
      <trkpt lat="46.96727986170098" lon="8.617095151099297">
      </trkpt>
      <trkpt lat="46.967501697453805" lon="8.617135976783372">
      </trkpt>
      <trkpt lat="46.96769810975947" lon="8.617275573249582">
      </trkpt>
      <trkpt lat="46.96785100089429" lon="8.617515421411612">
      </trkpt>
      <trkpt lat="46.96801099399678" lon="8.617739320241194">
      </trkpt>
      <trkpt lat="46.96820003650114" lon="8.617917135329003">
      </trkpt>
      <trkpt lat="46.96839673461618" lon="8.618071604509556">
      </trkpt>
      <trkpt lat="46.96861283071836" lon="8.6181543539804">
      </trkpt>
      <trkpt lat="46.96883653990419" lon="8.618186461902717">
      </trkpt>
      <trkpt lat="46.969061149597295" lon="8.618198860300385">
      </trkpt>
      <trkpt lat="46.9692856917809" lon="8.618211092741099">
      </trkpt>
      <trkpt lat="46.96950013916865" lon="8.618162823558714">
      </trkpt>
      <trkpt lat="46.969636153842124" lon="8.61793560451597">
      </trkpt>
      <trkpt lat="46.969629856321795" lon="8.617623068819604">
      </trkpt>
      <trkpt lat="46.96963074207469" lon="8.617308490070526">
      </trkpt>
      <trkpt lat="46.96976616786405" lon="8.617074967978208">
      </trkpt>
      <trkpt lat="46.96997753664669" lon="8.616990086322163">
      </trkpt>
      <trkpt lat="46.970198257694236" lon="8.617026023151102">
      </trkpt>
      <trkpt lat="46.97041711089091" lon="8.617101555879959">
      </trkpt>
      <trkpt lat="46.970634448132216" lon="8.617185591319357">
      </trkpt>
      <trkpt lat="46.97084309610643" lon="8.6173055041533">
      </trkpt>
      <trkpt lat="46.97103732116514" lon="8.617469515828944">
      </trkpt>
      <trkpt lat="46.97123612558356" lon="8.617621052534357">
      </trkpt>
      <trkpt lat="46.971453474079105" lon="8.617658622789644">
      </trkpt>
      <trkpt lat="46.97167709986022" lon="8.617625598082414">
      </trkpt>
      <trkpt lat="46.971901274167095" lon="8.617617971142295">
      </trkpt>
      <trkpt lat="46.97212607971312" lon="8.61762606609221">
      </trkpt>
      <trkpt lat="46.972350939207885" lon="8.617626998639837">
      </trkpt>
      <trkpt lat="46.972575740590365" lon="8.61761940637901">
      </trkpt>
      <trkpt lat="46.97280057068143" lon="8.61761762962622">
      </trkpt>
      <trkpt lat="46.97302101295279" lon="8.617670661218163">
      </trkpt>
      <trkpt lat="46.973229744542714" lon="8.617789259112792">
      </trkpt>
      <trkpt lat="46.973411182702854" lon="8.617978461611083">
      </trkpt>
      <trkpt lat="46.97358639488238" lon="8.61818420072706">
      </trkpt>
      <trkpt lat="46.973766154897866" lon="8.618381581803241">
      </trkpt>
      <trkpt lat="46.97395087112964" lon="8.618568813969546">
      </trkpt>
      <trkpt lat="46.97415539151834" lon="8.618698582737498">
      </trkpt>
      <trkpt lat="46.974371690880396" lon="8.618676335636176">
      </trkpt>
      <trkpt lat="46.97456815763854" lon="8.618524521636056">
      </trkpt>
      <trkpt lat="46.9747537052828" lon="8.61833891784357">
      </trkpt>
      <trkpt lat="46.974943230725025" lon="8.618162273877672">
      </trkpt>
      <trkpt lat="46.9751503096255" lon="8.618039153002167">
      </trkpt>
      <trkpt lat="46.9753681416881" lon="8.617958889079492">
      </trkpt>
      <trkpt lat="46.97559070831609" lon="8.617915612004367">
      </trkpt>
      <trkpt lat="46.97581312216098" lon="8.61786823933192">
      </trkpt>
      <trkpt lat="46.97603589161882" lon="8.617823794764657">
      </trkpt>
      <trkpt lat="46.976260275367444" lon="8.61781234591627">
      </trkpt>
      <trkpt lat="46.97648513507799" lon="8.617816006718614">
      </trkpt>
      <trkpt lat="46.97670998726455" lon="8.617821012716659">
      </trkpt>
      <trkpt lat="46.97693456077248" lon="8.617836695060587">
      </trkpt>
      <trkpt lat="46.9771568526879" lon="8.617883377463045">
      </trkpt>
      <trkpt lat="46.97737728439991" lon="8.617948214927932">
      </trkpt>
      <trkpt lat="46.97759720398788" lon="8.618016830868067">
      </trkpt>
      <trkpt lat="46.97781686896897" lon="8.618087162528923">
      </trkpt>
      <trkpt lat="46.978035759008264" lon="8.618162427578728">
      </trkpt>
      <trkpt lat="46.97824207679888" lon="8.618288890452773">
      </trkpt>
      <trkpt lat="46.97844435611132" lon="8.618432435270192">
      </trkpt>
      <trkpt lat="46.9786480036358" lon="8.618571781735854">
      </trkpt>
      <trkpt lat="46.97885364705745" lon="8.618704695527358">
      </trkpt>
      <trkpt lat="46.97904104100974" lon="8.618883049075947">
      </trkpt>
      <trkpt lat="46.97918679321473" lon="8.619129748181553">
      </trkpt>
      <trkpt lat="46.97934306343747" lon="8.619364577922804">
      </trkpt>
      <trkpt lat="46.97955180096544" lon="8.619442375617444">
      </trkpt>
      <trkpt lat="46.979776013240176" lon="8.619467621481046">
      </trkpt>
      <trkpt lat="46.9800002459944" lon="8.619492497476736">
      </trkpt>
      <trkpt lat="46.98019947376896" lon="8.619630983019112">
      </trkpt>
      <trkpt lat="46.9803885039783" lon="8.61980891296176">
      </trkpt>
      <trkpt lat="46.98057687646724" lon="8.619988379798661">
      </trkpt>
      <trkpt lat="46.980791217758075" lon="8.620072434066921">
      </trkpt>
      <trkpt lat="46.98097785082695" lon="8.619919080356237">
      </trkpt>
      <trkpt lat="46.981114296979136" lon="8.619660631906703">
      </trkpt>
      <trkpt lat="46.98122500281546" lon="8.619374912747478">
      </trkpt>
      <trkpt lat="46.981330797378554" lon="8.619084961055599">
      </trkpt>
      <trkpt lat="46.981472902767834" lon="8.618831803689053">
      </trkpt>
      <trkpt lat="46.98165169173105" lon="8.618634377237624">
      </trkpt>
      <trkpt lat="46.98175099197453" lon="8.618346978946274">
      </trkpt>
      <trkpt lat="46.98186322898783" lon="8.618063052073836">
      </trkpt>
      <trkpt lat="46.982018601772566" lon="8.617830938150409">
      </trkpt>
      <trkpt lat="46.98222316362721" lon="8.617696342436336">
      </trkpt>
      <trkpt lat="46.98241536595028" lon="8.61753593716704">
      </trkpt>
      <trkpt lat="46.982639031742266" lon="8.61750212966904">
      </trkpt>
      <trkpt lat="46.982863311431096" lon="8.617478216042633">
      </trkpt>
      <trkpt lat="46.98308716497025" lon="8.617450579128324">
      </trkpt>
      <trkpt lat="46.98330892032587" lon="8.617397805423407">
      </trkpt>
      <trkpt lat="46.98353311738963" lon="8.617372441568932">
      </trkpt>
      <trkpt lat="46.983756884450564" lon="8.61733986228638">
      </trkpt>
      <trkpt lat="46.983977217801026" lon="8.617286022241343">
      </trkpt>
      <trkpt lat="46.98417637520776" lon="8.617139442905692">
      </trkpt>
      <trkpt lat="46.984343593455606" lon="8.61691976626438">
      </trkpt>
      <trkpt lat="46.98450974233342" lon="8.61669863298378">
      </trkpt>
      <trkpt lat="46.98469103415441" lon="8.616505884935656">
      </trkpt>
      <trkpt lat="46.98489429779624" lon="8.616368195857099">
      </trkpt>
      <trkpt lat="46.98511218046954" lon="8.616288534650435">
      </trkpt>
      <trkpt lat="46.98533029312442" lon="8.616218412324194">
      </trkpt>
      <trkpt lat="46.98550666519005" lon="8.616035385390067">
      </trkpt>
      <trkpt lat="46.98564443689121" lon="8.615784335377164">
      </trkpt>
      <trkpt lat="46.98584374472226" lon="8.61564553784554">
      </trkpt>
      <trkpt lat="46.98606587726138" lon="8.615601346350514">
      </trkpt>
      <trkpt lat="46.986290668446" lon="8.615592704102287">
      </trkpt>
      <trkpt lat="46.986515193838834" lon="8.615600968008339">
      </trkpt>
      <trkpt lat="46.986739532233734" lon="8.615615786765748">
      </trkpt>
      <trkpt lat="46.98696404927337" lon="8.615623353634046">
      </trkpt>
      <trkpt lat="46.9871880047065" lon="8.61565301813205">
      </trkpt>
      <trkpt lat="46.98740967364274" lon="8.615703579752228">
      </trkpt>
      <trkpt lat="46.98763120027691" lon="8.615745293508263">
      </trkpt>
      <trkpt lat="46.98785606465816" lon="8.615743405655248">
      </trkpt>
      <trkpt lat="46.98808005696842" lon="8.615761547818211">
      </trkpt>
      <trkpt lat="46.9882985023189" lon="8.615833757518576">
      </trkpt>
      <trkpt lat="46.98851820034467" lon="8.615894386807824">
      </trkpt>
      <trkpt lat="46.98860850500222" lon="8.615712826023032">
      </trkpt>
      <trkpt lat="46.9887286398203" lon="8.615473345925416">
      </trkpt>
      <trkpt lat="46.98888173817912" lon="8.615235844787113">
      </trkpt>
      <trkpt lat="46.9890480342021" lon="8.615017349268877">
      </trkpt>
      <trkpt lat="46.98893751512507" lon="8.614959219417">
      </trkpt>
      <trkpt lat="46.98871273946366" lon="8.614950028900902">
      </trkpt>
      <trkpt lat="46.988593020556316" lon="8.614701170296525">
      </trkpt>
      <trkpt lat="46.98870982370393" lon="8.614421863570065">
      </trkpt>
      <trkpt lat="46.988911243980404" lon="8.614276028339564">
      </trkpt>
      <trkpt lat="46.98912402452253" lon="8.614173437163481">
      </trkpt>
      <trkpt lat="46.98934833883308" lon="8.614151025959526">
      </trkpt>
      <trkpt lat="46.98957055608053" lon="8.61410412967564">
      </trkpt>
      <trkpt lat="46.989784830564105" lon="8.614004448850284">
      </trkpt>
      <trkpt lat="46.99000207437035" lon="8.613925459729986">
      </trkpt>
      <trkpt lat="46.99022645744126" lon="8.613914479776575">
      </trkpt>
      <trkpt lat="46.99044842853014" lon="8.613862178531061">
      </trkpt>
      <trkpt lat="46.990669715107494" lon="8.61381176565686">
      </trkpt>
      <trkpt lat="46.990882296924816" lon="8.613712824429513">
      </trkpt>
      <trkpt lat="46.9911020226835" lon="8.613736476707981">
      </trkpt>
      <trkpt lat="46.99130477405329" lon="8.613817988760799">
      </trkpt>
      <trkpt lat="46.991521181719115" lon="8.613732299119985">
      </trkpt>
      <trkpt lat="46.99174310338409" lon="8.613679878440736">
      </trkpt>
      <trkpt lat="46.991766347143965" lon="8.613502659723522">
      </trkpt>
      <trkpt lat="46.991624086525746" lon="8.613248632886608">
      </trkpt>
      <trkpt lat="46.99149645620067" lon="8.612980189863631">
      </trkpt>
      <trkpt lat="46.99136594136995" lon="8.612714069584886">
      </trkpt>
      <trkpt lat="46.991228864746724" lon="8.612453736214716">
      </trkpt>
      <trkpt lat="46.99109998343382" lon="8.61218446878301">
      </trkpt>
      <trkpt lat="46.99103641673607" lon="8.611877369434087">
      </trkpt>
      <trkpt lat="46.99090241944573" lon="8.611646894084773">
      </trkpt>
      <trkpt lat="46.99070835809706" lon="8.611481206385719">
      </trkpt>
      <trkpt lat="46.99081001742073" lon="8.6113312109478">
      </trkpt>
      <trkpt lat="46.991030298745216" lon="8.611396214937612">
      </trkpt>
      <trkpt lat="46.99125427674823" lon="8.61142449938719">
      </trkpt>
      <trkpt lat="46.99147581939227" lon="8.611480536543322">
      </trkpt>
      <trkpt lat="46.99169512764741" lon="8.611552433380869">
      </trkpt>
      <trkpt lat="46.99191786742729" lon="8.611581157113635">
      </trkpt>
      <trkpt lat="46.9921372653225" lon="8.611519614861106">
      </trkpt>
      <trkpt lat="46.99236034966678" lon="8.611549421580312">
      </trkpt>
      <trkpt lat="46.99258279203117" lon="8.611502146674104">
      </trkpt>
      <trkpt lat="46.99280180134129" lon="8.611428295177339">
      </trkpt>
      <trkpt lat="46.993015931701485" lon="8.611328126595705">
      </trkpt>
      <trkpt lat="46.99322597607199" lon="8.611255414903683">
      </trkpt>
      <trkpt lat="46.99343251559219" lon="8.611385410322825">
      </trkpt>
      <trkpt lat="46.99363937306723" lon="8.611514287341024">
      </trkpt>
      <trkpt lat="46.993848904098066" lon="8.611592371042546">
      </trkpt>
      <trkpt lat="46.993997703774674" lon="8.611414131372829">
      </trkpt>
      <trkpt lat="46.99395433941535" lon="8.611121965927921">
      </trkpt>
      <trkpt lat="46.99377412377024" lon="8.610934409523885">
      </trkpt>
      <trkpt lat="46.993715989141734" lon="8.610730080530422">
      </trkpt>
      <trkpt lat="46.99390156417743" lon="8.610606517289932">
      </trkpt>
      <trkpt lat="46.99408928355082" lon="8.610448820112104">
      </trkpt>
      <trkpt lat="46.994101916518254" lon="8.610158316515314">
      </trkpt>
      <trkpt lat="46.99394456568067" lon="8.609948926720145">
      </trkpt>
      <trkpt lat="46.993784019464826" lon="8.609721667459928">
      </trkpt>
      <trkpt lat="46.99377570276482" lon="8.609414345081364">
      </trkpt>
      <trkpt lat="46.993976447792186" lon="8.609371644104169">
      </trkpt>
      <trkpt lat="46.994004268807764" lon="8.609687394178444">
      </trkpt>
      <trkpt lat="46.99422510020293" lon="8.609625355426072">
      </trkpt>
      <trkpt lat="46.9944156812867" lon="8.609512566300412">
      </trkpt>
      <trkpt lat="46.99444398629155" lon="8.609197540174012">
      </trkpt>
      <trkpt lat="46.99436785704036" lon="8.608896890918011">
      </trkpt>
      <trkpt lat="46.994302581926625" lon="8.608597442132618">
      </trkpt>
      <trkpt lat="46.99427862530034" lon="8.608272611807323">
      </trkpt>
      <trkpt lat="46.994162495533104" lon="8.608014231741565">
      </trkpt>
      <trkpt lat="46.99396624315012" lon="8.607862097506514">
      </trkpt>
      <trkpt lat="46.99387066876488" lon="8.60762419697782">
      </trkpt>
      <trkpt lat="46.993988480002926" lon="8.60737147168048">
      </trkpt>
      <trkpt lat="46.994172226412296" lon="8.607184002801718">
      </trkpt>
      <trkpt lat="46.99430152964982" lon="8.60692167929186">
      </trkpt>
      <trkpt lat="46.99439521851121" lon="8.606623241034308">
      </trkpt>
      <trkpt lat="46.994433758386194" lon="8.60630090184829">
      </trkpt>
      <trkpt lat="46.99453272971896" lon="8.60602096169891">
      </trkpt>
      <trkpt lat="46.99445030845257" lon="8.605767810838167">
      </trkpt>
      <trkpt lat="46.99424641295618" lon="8.60563123204405">
      </trkpt>
      <trkpt lat="46.994032003576045" lon="8.605533586413657">
      </trkpt>
      <trkpt lat="46.993822981585154" lon="8.60541984498733">
      </trkpt>
      <trkpt lat="46.993752" lon="8.605363">
      </trkpt>
    </trkseg>
  </trk>
</gpx>